{"spkid": "50709625", "covariance": {"labels": ["e", "q", "tp", "node", "peri", "i"], "data": [["3.604517789508238E-16", "-6.334964003597347E-16", "2.848855975737185E-14", "-7.052960124487483E-14", "9.356119810757425E-14", "5.846959901433224E-15"], ["-6.334964003597347E-16", "1.1187081472554E-15", "-4.412861860303299E-14", "1.053588860387382E-13", "-1.39593934696808E-13", "-1.153658411046434E-14"], ["2.848855975737185E-14", "-4.412861860303299E-14", "1.053166833527691E-10", "-1.106171279173357E-10", "1.899594431475817E-10", "-1.095364095344634E-12"], ["-7.052960124487483E-14", "1.053588860387382E-13", "-1.106171279173357E-10", "1.318971385542373E-9", "-1.385901074606154E-9", "-3.079215822053194E-11"], ["9.356119810757425E-14", "-1.39593934696808E-13", "1.899594431475817E-10", "-1.385901074606154E-9", "1.521752709839081E-9", "2.881812386324836E-11"], ["5.846959901433224E-15", "-1.153658411046434E-14", "-1.095364095344634E-12", "-3.079215822053194E-11", "2.881812386324836E-11", "1.418623399946666E-11"]], "elements": [{"label": "e", "name": "e", "sigma": 1.89855676488965e-08, "units": null, "value": ".4463517581722116", "title": "eccentricity"}, {"label": "q", "name": "q", "sigma": 3.34470947505968e-08, "value": ".9687611208525662", "title": "perihelion distance", "units": "au"}, {"label": "tp", "title": "time of perihelion passage", "value": "2458847.583309779216", "units": "TDB", "name": "tp", "sigma": 1.02623916974928e-05}, {"label": "node", "value": "152.4665366284464", "title": "longitude of the ascending node", "units": "deg", "sigma": 3.63176456497716e-05, "name": "om"}, {"label": "peri", "sigma": 3.9009648932528e-05, "name": "w", "value": "59.21204980432145", "title": "argument of perihelion", "units": "deg"}, {"label": "i", "units": "deg", "title": "inclination", "value": "5.271967521832018", "sigma": 3.76646173476735e-06, "name": "i"}], "epoch": "2458607.5"}, "elements": [{"name": "e", "sigma": "1.8928E-8", "title": "eccentricity", "value": ".4465766076789817", "units": null, "label": "e"}, {"title": "semi-major axis", "value": "1.749898990353136", "units": "au", "name": "a", "sigma": "3.9935E-9", "label": "a"}, {"label": "q", "units": "au", "value": ".9684350354603573", "title": "perihelion distance", "sigma": "3.3517E-8", "name": "q"}, {"label": "i", "value": "5.264779315315378", "title": "inclination; angle with respect to x-y ecliptic plane", "units": "deg", "sigma": "3.7668E-6", "name": "i"}, {"label": "node", "name": "om", "sigma": "3.6355E-5", "title": "longitude of the ascending node", "value": "152.2425270566036", "units": "deg"}, {"units": "deg", "title": "argument of perihelion", "value": "59.48456462218269", "sigma": "3.9068E-5", "name": "w", "label": "peri"}, {"label": "M", "units": "deg", "title": "mean anomaly", "value": "281.6759374447719", "sigma": "6.0465E-6", "name": "ma"}, {"sigma": "1.4635E-5", "name": "tp", "units": "TDB", "title": "time of perihelion passage", "value": "2461384.454578915099", "label": "tp"}, {"name": "per", "sigma": "2.8943E-6", "units": "d", "title": "sidereal orbital period", "value": "845.5083437831123", "label": "period"}, {"label": "n", "title": "mean motion", "value": ".4257793582369972", "units": "deg/d", "sigma": "1.4575E-9", "name": "n"}, {"value": "2.531362945245914", "title": "aphelion distance", "units": "au", "name": "ad", "sigma": "5.7769E-9", "label": "Q"}], "epoch": "2461200.5"}